CCSDS_OMM_VERS = 2.0
CREATION_DATE  = 
ORIGINATOR     = 

OBJECT_NAME    = COSMOS 2151
OBJECT_ID      = 1991-042A
CENTER_NAME    = EARTH
REF_FRAME      = TEME
TIME_SYSTEM    = UTC
MEAN_ELEMENT_THEORY = SGP/SGP4

EPOCH          = 2025-12-03T03:33:48.572640
MEAN_MOTION    = 14.99628364
ECCENTRICITY   = .0013406
INCLINATION    = 82.4961
RA_OF_ASC_NODE = 176.7455
ARG_OF_PERICENTER = 31.3093
MEAN_ANOMALY   = 328.8926

EPHEMERIS_TYPE = 0
CLASSIFICATION_TYPE = U
NORAD_CAT_ID   = 21422
ELEMENT_SET_NO = 999
REV_AT_EPOCH   = 84872
BSTAR          = .18003E-3
MEAN_MOTION_DOT = .2247E-4
MEAN_MOTION_DDOT = 0

CCSDS_OMM_VERS = 2.0
CREATION_DATE  = 
ORIGINATOR     = 

OBJECT_NAME    = SL-14 R/B
OBJECT_ID      = 1991-042B
CENTER_NAME    = EARTH
REF_FRAME      = TEME
TIME_SYSTEM    = UTC
MEAN_ELEMENT_THEORY = SGP/SGP4

EPOCH          = 2025-12-03T04:37:29.211744
MEAN_MOTION    = 14.81724079
ECCENTRICITY   = .0016603
INCLINATION    = 82.4918
RA_OF_ASC_NODE = 310.6765
ARG_OF_PERICENTER = 193.1414
MEAN_ANOMALY   = 166.9370

EPHEMERIS_TYPE = 0
CLASSIFICATION_TYPE = U
NORAD_CAT_ID   = 21423
ELEMENT_SET_NO = 999
REV_AT_EPOCH   = 83878
BSTAR          = .7747E-4
MEAN_MOTION_DOT = .635E-5
MEAN_MOTION_DDOT = 0

CCSDS_OMM_VERS = 2.0
CREATION_DATE  = 
ORIGINATOR     = 

OBJECT_NAME    = ERS-1
OBJECT_ID      = 1991-050A
CENTER_NAME    = EARTH
REF_FRAME      = TEME
TIME_SYSTEM    = UTC
MEAN_ELEMENT_THEORY = SGP/SGP4

EPOCH          = 2025-12-02T22:26:46.897728
MEAN_MOTION    = 14.39352445
ECCENTRICITY   = .0032818
INCLINATION    = 98.7910
RA_OF_ASC_NODE = 347.7447
ARG_OF_PERICENTER = 128.2717
MEAN_ANOMALY   = 232.1430

EPHEMERIS_TYPE = 0
CLASSIFICATION_TYPE = U
NORAD_CAT_ID   = 21574
ELEMENT_SET_NO = 999
REV_AT_EPOCH   = 80181
BSTAR          = .16792E-3
MEAN_MOTION_DOT = .479E-5
MEAN_MOTION_DDOT = 0

CCSDS_OMM_VERS = 2.0
CREATION_DATE  = 
ORIGINATOR     = 

OBJECT_NAME    = ARIANE 40 R/B
OBJECT_ID      = 1991-050F
CENTER_NAME    = EARTH
REF_FRAME      = TEME
TIME_SYSTEM    = UTC
MEAN_ELEMENT_THEORY = SGP/SGP4

EPOCH          = 2025-12-03T03:31:29.370144
MEAN_MOTION    = 14.42799860
ECCENTRICITY   = .0003378
INCLINATION    = 98.2178
RA_OF_ASC_NODE = 27.9230
ARG_OF_PERICENTER = 27.2008
MEAN_ANOMALY   = 332.9359

EPHEMERIS_TYPE = 0
CLASSIFICATION_TYPE = U
NORAD_CAT_ID   = 21610
ELEMENT_SET_NO = 999
REV_AT_EPOCH   = 80507
BSTAR          = .16431E-3
MEAN_MOTION_DOT = .506E-5
MEAN_MOTION_DDOT = 0

CCSDS_OMM_VERS = 2.0
CREATION_DATE  = 
ORIGINATOR     = 

OBJECT_NAME    = INTERCOSMOS 25
OBJECT_ID      = 1991-086A
CENTER_NAME    = EARTH
REF_FRAME      = TEME
TIME_SYSTEM    = UTC
MEAN_ELEMENT_THEORY = SGP/SGP4

EPOCH          = 2025-12-03T03:22:52.436352
MEAN_MOTION    = 12.11673689
ECCENTRICITY   = .1487077
INCLINATION    = 82.6069
RA_OF_ASC_NODE = 8.3806
ARG_OF_PERICENTER = 325.1060
MEAN_ANOMALY   = 26.0707

EPHEMERIS_TYPE = 0
CLASSIFICATION_TYPE = U
NORAD_CAT_ID   = 21819
ELEMENT_SET_NO = 999
REV_AT_EPOCH   = 48499
BSTAR          = .62727E-3
MEAN_MOTION_DOT = .3163E-4
MEAN_MOTION_DDOT = 0

CCSDS_OMM_VERS = 2.0
CREATION_DATE  = 
ORIGINATOR     = 

OBJECT_NAME    = SL-8 R/B
OBJECT_ID      = 1992-008B
CENTER_NAME    = EARTH
REF_FRAME      = TEME
TIME_SYSTEM    = UTC
MEAN_ELEMENT_THEORY = SGP/SGP4

EPOCH          = 2025-12-03T03:43:28.999200
MEAN_MOTION    = 13.75955830
ECCENTRICITY   = .00357
INCLINATION    = 82.9263
RA_OF_ASC_NODE = 339.5764
ARG_OF_PERICENTER = 46.0152
MEAN_ANOMALY   = 24.3955

EPHEMERIS_TYPE = 0
CLASSIFICATION_TYPE = U
NORAD_CAT_ID   = 21876
ELEMENT_SET_NO = 999
REV_AT_EPOCH   = 69614
BSTAR          = .17002E-3
MEAN_MOTION_DOT = .181E-5
MEAN_MOTION_DDOT = 0

CCSDS_OMM_VERS = 2.0
CREATION_DATE  = 
ORIGINATOR     = 

OBJECT_NAME    = SL-8 R/B
OBJECT_ID      = 1992-020B
CENTER_NAME    = EARTH
REF_FRAME      = TEME
TIME_SYSTEM    = UTC
MEAN_ELEMENT_THEORY = SGP/SGP4

EPOCH          = 2025-12-03T04:27:40.214304
MEAN_MOTION    = 13.75524765
ECCENTRICITY   = .0028298
INCLINATION    = 82.9313
RA_OF_ASC_NODE = 225.4112
ARG_OF_PERICENTER = 205.1768
MEAN_ANOMALY   = 311.8386

EPHEMERIS_TYPE = 0
CLASSIFICATION_TYPE = U
NORAD_CAT_ID   = 21938
ELEMENT_SET_NO = 999
REV_AT_EPOCH   = 68786
BSTAR          = .69707E-4
MEAN_MOTION_DOT = .82E-6
MEAN_MOTION_DDOT = 0

CCSDS_OMM_VERS = 2.0
CREATION_DATE  = 
ORIGINATOR     = 

OBJECT_NAME    = USA 81
OBJECT_ID      = 1992-023A
CENTER_NAME    = EARTH
REF_FRAME      = TEME
TIME_SYSTEM    = UTC
MEAN_ELEMENT_THEORY = SGP/SGP4

EPOCH          = 2025-12-03T02:44:03.976224
MEAN_MOTION    = 14.32321284
ECCENTRICITY   = .000184
INCLINATION    = 85.0088
RA_OF_ASC_NODE = 187.1273
ARG_OF_PERICENTER = 62.6332
MEAN_ANOMALY   = 297.5048

EPHEMERIS_TYPE = 0
CLASSIFICATION_TYPE = U
NORAD_CAT_ID   = 21949
ELEMENT_SET_NO = 999
REV_AT_EPOCH   = 8096
BSTAR          = .89616E-4
MEAN_MOTION_DOT = .262E-5
MEAN_MOTION_DDOT = 0

CCSDS_OMM_VERS = 2.0
CREATION_DATE  = 
ORIGINATOR     = 

OBJECT_NAME    = COSMOS 2219
OBJECT_ID      = 1992-076A
CENTER_NAME    = EARTH
REF_FRAME      = TEME
TIME_SYSTEM    = UTC
MEAN_ELEMENT_THEORY = SGP/SGP4

EPOCH          = 2025-12-03T00:47:59.330976
MEAN_MOTION    = 14.14063945
ECCENTRICITY   = .0018847
INCLINATION    = 71.0594
RA_OF_ASC_NODE = 220.1226
ARG_OF_PERICENTER = 340.1830
MEAN_ANOMALY   = 19.8558

EPHEMERIS_TYPE = 0
CLASSIFICATION_TYPE = U
NORAD_CAT_ID   = 22219
ELEMENT_SET_NO = 999
REV_AT_EPOCH   = 70471
BSTAR          = -.93688E-4
MEAN_MOTION_DOT = -.226E-5
MEAN_MOTION_DDOT = 0

CCSDS_OMM_VERS = 2.0
CREATION_DATE  = 
ORIGINATOR     = 

OBJECT_NAME    = SL-16 R/B
OBJECT_ID      = 1992-076B
CENTER_NAME    = EARTH
REF_FRAME      = TEME
TIME_SYSTEM    = UTC
MEAN_ELEMENT_THEORY = SGP/SGP4

EPOCH          = 2025-12-03T04:19:36.928992
MEAN_MOTION    = 14.16841201
ECCENTRICITY   = .0015063
INCLINATION    = 71.0016
RA_OF_ASC_NODE = 31.6688
ARG_OF_PERICENTER = 246.8867
MEAN_ANOMALY   = 144.6256

EPHEMERIS_TYPE = 0
CLASSIFICATION_TYPE = U
NORAD_CAT_ID   = 22220
ELEMENT_SET_NO = 999
REV_AT_EPOCH   = 70816
BSTAR          = .50357E-4
MEAN_MOTION_DOT = .53E-6
MEAN_MOTION_DDOT = 0

CCSDS_OMM_VERS = 2.0
CREATION_DATE  = 
ORIGINATOR     = 

OBJECT_NAME    = COSMOS 2221
OBJECT_ID      = 1992-080A
CENTER_NAME    = EARTH
REF_FRAME      = TEME
TIME_SYSTEM    = UTC
MEAN_ELEMENT_THEORY = SGP/SGP4

EPOCH          = 2025-12-03T02:49:15.727296
MEAN_MOTION    = 14.95701366
ECCENTRICITY   = .0015366
INCLINATION    = 82.5050
RA_OF_ASC_NODE = 11.5356
ARG_OF_PERICENTER = 151.7686
MEAN_ANOMALY   = 208.4372

EPHEMERIS_TYPE = 0
CLASSIFICATION_TYPE = U
NORAD_CAT_ID   = 22236
ELEMENT_SET_NO = 999
REV_AT_EPOCH   = 76635
BSTAR          = .25563E-3
MEAN_MOTION_DOT = .2876E-4
MEAN_MOTION_DDOT = 0

CCSDS_OMM_VERS = 2.0
CREATION_DATE  = 
ORIGINATOR     = 

OBJECT_NAME    = SL-16 R/B
OBJECT_ID      = 1992-093B
CENTER_NAME    = EARTH
REF_FRAME      = TEME
TIME_SYSTEM    = UTC
MEAN_ELEMENT_THEORY = SGP/SGP4

EPOCH          = 2025-12-03T01:29:28.565952
MEAN_MOTION    = 14.15425603
ECCENTRICITY   = .0001945
INCLINATION    = 71.0202
RA_OF_ASC_NODE = 207.1105
ARG_OF_PERICENTER = 101.4206
MEAN_ANOMALY   = 258.7135

EPHEMERIS_TYPE = 0
CLASSIFICATION_TYPE = U
NORAD_CAT_ID   = 22285
ELEMENT_SET_NO = 999
REV_AT_EPOCH   = 69948
BSTAR          = -.33576E-4
MEAN_MOTION_DOT = -.113E-5
MEAN_MOTION_DDOT = 0

