COSMOS 2151             
1 21422U 91042A   25337.14847885  .00002247  00000+0  18003-3 0  9991
2 21422  82.4961 176.7455 0013406  31.3093 328.8926 14.99628364848720
SL-14 R/B               
1 21423U 91042B   25337.19269921  .00000635  00000+0  77470-4 0  9999
2 21423  82.4918 310.6765 0016603 193.1414 166.9370 14.81724079838782
ERS-1                   
1 21574U 91050A   25336.93526502  .00000479  00000+0  16792-3 0  9992
2 21574  98.7910 347.7447 0032818 128.2717 232.1430 14.39352445801814
ARIANE 40 R/B           
1 21610U 91050F   25337.14686771  .00000506  00000+0  16431-3 0  9993
2 21610  98.2178  27.9230 0003378  27.2008 332.9359 14.42799860805074
INTERCOSMOS 25          
1 21819U 91086A   25337.14088468  .00003163  00000+0  62727-3 0  9993
2 21819  82.6069   8.3806 1487077 325.1060  26.0707 12.11673689484990
SL-8 R/B                
1 21876U 92008B   25337.15519675  .00000181  00000+0  17002-3 0  9994
2 21876  82.9263 339.5764 0035700  46.0152  24.3955 13.75955830696146
SL-8 R/B                
1 21938U 92020B   25337.18588211  .00000082  00000+0  69707-4 0  9992
2 21938  82.9313 225.4112 0028298 205.1768 311.8386 13.75524765687866
USA 81                  
1 21949U 92023A   25337.11393491  .00000262  00000+0  89616-4 0  9995
2 21949  85.0088 187.1273 0001840  62.6332 297.5048 14.32321284 80968
COSMOS 2219             
1 22219U 92076A   25337.03332559 -.00000226  00000+0 -93688-4 0  9999
2 22219  71.0594 220.1226 0018847 340.1830  19.8558 14.14063945704718
SL-16 R/B               
1 22220U 92076B   25337.18028853  .00000053  00000+0  50357-4 0  9998
2 22220  71.0016  31.6688 0015063 246.8867 144.6256 14.16841201708161
COSMOS 2221             
1 22236U 92080A   25337.11754314  .00002876  00000+0  25563-3 0  9996
2 22236  82.5050  11.5356 0015366 151.7686 208.4372 14.95701366766358
SL-16 R/B               
1 22285U 92093B   25337.06213618 -.00000113  00000+0 -33576-4 0  9993
2 22285  71.0202 207.1105 0001945 101.4206 258.7135 14.15425603699480
